[{"OBJECT_NAME":"STARLINK-30056","OBJECT_ID":"2023-119W","EPOCH":"2026-03-09T22:00:01.999584","MEAN_MOTION":15.18690363,"ECCENTRICITY":0.00012443,"INCLINATION":43.0005,"RA_OF_ASC_NODE":79.7341,"ARG_OF_PERICENTER":294.9593,"MEAN_ANOMALY":198.4792,"EPHEMERIS_TYPE":0,"CLASSIFICATION_TYPE":"U","NORAD_CAT_ID":57622,"ELEMENT_SET_NO":999,"REV_AT_EPOCH":573,"BSTAR":0.045658013,"MEAN_MOTION_DOT":0.01040204,"MEAN_MOTION_DDOT":0},{"OBJECT_NAME":"NEONSAT-1","OBJECT_ID":"2024-077A","EPOCH":"2026-03-09T22:26:06.154944","MEAN_MOTION":15.35891462,"ECCENTRICITY":0.00098814,"INCLINATION":97.3521,"RA_OF_ASC_NODE":152.9367,"ARG_OF_PERICENTER":35.5885,"MEAN_ANOMALY":324.6016,"EPHEMERIS_TYPE":0,"CLASSIFICATION_TYPE":"U","NORAD_CAT_ID":59587,"ELEMENT_SET_NO":999,"REV_AT_EPOCH":10448,"BSTAR":0.00040888908,"MEAN_MOTION_DOT":0.00014234,"MEAN_MOTION_DDOT":0}]
